OBJECT_NAME,OBJECT_ID,EPOCH,MEAN_MOTION,ECCENTRICITY,INCLINATION,RA_OF_ASC_NODE,ARG_OF_PERICENTER,MEAN_ANOMALY,EPHEMERIS_TYPE,CLASSIFICATION_TYPE,NORAD_CAT_ID,ELEMENT_SET_NO,REV_AT_EPOCH,BSTAR,MEAN_MOTION_DOT,MEAN_MOTION_DDOT
SL-14 R/B,1990-018B,2026-07-12T19:11:05.026272,14.82233205,.0017207,82.5219,106.1697,44.2601,315.9986,0,U,20511,999,94111,.2365E-4,.213E-5,0
HST,1990-037B,2026-07-12T12:02:47.954688,15.31043109,.00022697,28.4726,267.5224,77.7190,282.3660,0,U,20580,999,79245,.11416285E-3,.3754E-4,0
SL-16 R/B,1990-046B,2026-07-12T18:00:41.247360,14.15023521,.0012442,70.9983,35.2588,118.6548,241.5827,0,U,20625,999,86608,.10002E-3,.146E-5,0
COSMOS 2084,1990-055A,2026-07-12T14:56:03.473088,15.06217986,.0007764,62.7887,269.2708,315.8302,44.2178,0,U,20663,999,95513,.75805E-4,.914E-5,0
SL-6 R/B(2),1990-055D,2026-07-12T09:07:38.663904,15.04080778,.00446966,62.7801,189.6408,8.6311,351.5546,0,U,20666,999,95694,.86820445E-4,.1023E-4,0
SL-8 R/B,1990-078B,2026-07-12T19:07:49.090080,14.93523575,.0343927,82.9029,138.4824,311.7109,45.5150,0,U,20775,999,82794,.42138E-3,.14872E-3,0
SL-8 R/B,1991-006B,2026-07-12T18:39:56.946816,13.77508836,.0023552,82.9411,76.9951,46.9654,20.6828,0,U,21088,999,78129,.58553E-4,.74E-6,0
OKEAN-3,1991-039A,2026-07-12T14:19:16.685760,15.05425475,.0012213,82.5139,215.7386,264.5319,95.4515,0,U,21397,999,88382,.10634E-3,.1556E-4,0
COSMOS 2151,1991-042A,2026-07-12T19:13:28.280928,15.00509717,.0012192,82.4979,322.9612,3.6434,356.4877,0,U,21422,999,88195,.53408E-4,.701E-5,0
SL-14 R/B,1991-042B,2026-07-12T19:28:20.513856,14.81917313,.0016763,82.4934,102.8671,184.7480,175.3578,0,U,21423,999,87160,.19814E-4,.181E-5,0
ERS-1,1991-050A,2026-07-12T16:10:33.658752,14.39531822,.0031748,98.7795,214.9943,189.2461,170.8146,0,U,21574,999,83371,.5907E-4,.139E-5,0
ARIANE 40 R/B,1991-050F,2026-07-12T16:56:10.358016,14.42971031,.0004251,98.1863,241.1268,66.9289,293.2349,0,U,21610,999,83702,.48849E-4,.122E-5,0
INTERCOSMOS 25,1991-086A,2026-07-12T14:48:12.707136,12.12238581,.1484451,82.6012,234.4213,207.4902,143.9443,0,U,21819,999,51182,.97751E-4,.505E-5,0
SL-8 R/B,1992-008B,2026-07-12T10:37:07.087296,13.75983212,.00355116,82.9271,175.0098,144.1182,332.7893,0,U,21876,999,72657,.98301232E-4,.111E-5,0
SL-8 R/B,1992-020B,2026-07-12T17:34:50.916000,13.75550278,.0028039,82.9286,60.8804,310.7625,117.9336,0,U,21938,999,71832,.17327E-4,.32E-6,0
USA 81,1992-023A,2026-07-12T16:51:33.035616,14.32404494,.0002098,85.0053,59.2781,65.6176,294.5236,0,U,21949,999,11268,.31679E-4,.106E-5,0
COSMOS 2219,1992-076A,2026-07-12T19:08:22.424064,14.14109433,.0018113,71.0614,116.5357,1.1954,358.9208,0,U,22219,999,73606,-.73109E-4,-.187E-5,0
SL-16 R/B,1992-076B,2026-07-12T15:59:15.969120,14.16876336,.0015016,71.0006,285.1089,265.3093,200.8384,0,U,22220,999,73953,.13736E-3,.228E-5,0
COSMOS 2221,1992-080A,2026-07-12T09:54:13.787712,14.96599087,.00155266,82.5045,159.5961,128.6864,231.5750,0,U,22236,999,79944,.75582353E-4,.889E-5,0
SL-16 R/B,1992-093B,2026-07-12T18:05:53.923776,14.15466588,.0002385,71.0221,101.7199,140.7376,219.3921,0,U,22285,999,73085,-.73219E-4,-.191E-5,0
COSMOS 2228,1992-094A,2026-07-12T19:27:52.670592,14.97671501,.0016169,82.5189,117.4993,237.8334,122.1321,0,U,22286,999,79478,.8442E-4,.1017E-4,0
SL-16 R/B,1993-016B,2026-07-12T17:41:05.726976,14.15311733,.0008937,71.0084,312.5439,142.4425,217.7324,0,U,22566,999,71986,.58609E-4,.67E-6,0
COSMOS 2242,1993-024A,2026-07-12T20:22:40.967328,14.96980784,.0014517,82.5197,146.9912,241.3226,118.6538,0,U,22626,999,79911,.79527E-4,.942E-5,0
SL-16 R/B,1993-059B,2026-07-12T18:11:00.325824,14.17250067,.001652,70.9904,107.3811,12.1732,347.9787,0,U,22803,999,69725,-.986E-4,-.247E-5,0
ARIANE 40 R/B,1993-061H,2026-07-12T18:17:53.318688,14.32917989,.0009467,98.4808,260.0867,273.7399,86.2702,0,U,22830,999,71201,.44085E-4,.77E-6,0
COSMOS 2278,1994-023A,2026-07-12T15:16:23.702880,14.14393328,.0009779,71.0526,273.6801,209.5245,150.5327,0,U,23087,999,66247,-.2941E-4,-.104E-5,0
SL-16 R/B,1994-023B,2026-07-12T08:15:23.308128,14.15023885,.00014543,70.9981,169.0993,139.0250,221.0982,0,U,23088,999,66372,.13011206E-4,-.22E-6,0
SL-16 R/B,1994-074B,2026-07-12T15:41:59.853408,14.79523008,.0006958,97.6987,219.3130,161.8794,311.8907,0,U,23343,999,70572,.33501E-4,.201E-5,0
SL-16 R/B,1994-077B,2026-07-12T18:31:09.517152,14.15574700,.0004088,70.9824,89.3384,305.2082,54.8658,0,U,23405,999,63393,-.84357E-4,-.213E-5,0
ARIANE 40+ R/B,1995-021B,2026-07-12T18:37:24.424032,14.39846849,.0007838,98.4401,263.4800,122.7513,347.3953,0,U,23561,999,63724,.53789E-4,.125E-5,0
SL-16 R/B,1995-058B,2026-07-12T15:26:22.098048,14.15508092,.001461,71.0211,277.9131,286.0887,73.8628,0,U,23705,999,58553,.33861E-4,.19E-6,0
